HORN-L                  
1 69505U 26132D   26189.81060360  .00002351  00000+0  14583-3 0  9993
2 69505  97.6831 253.4199 0023851 230.4947 129.4174 15.10520653  4035
VERTECS                 
1 69506U 26132E   26189.68243473  .00001287  00000+0  10542-3 0  9995
2 69506  97.6833 253.1447 0014982 228.4536 131.5404 15.00976969  3995
HORN-R                  
1 69507U 26132F   26189.11489311  .00001223  00000+0  89758-4 0  9993
2 69507  97.6888 252.6451 0018467 229.6695 130.2919 15.05258350  3917
STARLINK-37536          
1 69508U 26133A   26189.35348847  .00031472  00000+0  57056-3 0  9993
2 69508  53.1600 217.5626 0000676  68.1109 291.9972 15.49363079  4097
STARLINK-37341          
1 69509U 26133B   26189.48434790  .00040863  00000+0  73800-3 0  9990
2 69509  53.1605 216.9611 0000588  89.0435 271.0642 15.49344837  4124
STARLINK-36536          
1 69510U 26133C   26189.91668981 -.01673402  00000+0 -33766-1 0  9990
2 69510  53.1601 214.1449 0000467  56.3997 205.8454 15.49192793  5418
STARLINK-37420          
1 69511U 26133D   26189.91668981 -.02455749  00000+0 -48493-1 0  9997
2 69511  53.1593 213.8845 0000734 112.0977 278.5622 15.49996645  5366
STARLINK-37511          
1 69512U 26133E   26189.91668981 -.00819600  00000+0 -16570-1 0  9997
2 69512  53.1588 213.9178 0000971  86.5023 287.2219 15.48476268  5363
STARLINK-37552          
1 69513U 26133F   26189.35476588  .00030187  00000+0  54781-3 0  9997
2 69513  53.1597 217.5694 0004370  85.8702 274.2806 15.49349249  5367
STARLINK-37607          
1 69514U 26133G   26189.91668981 -.02486062  00000+0 -54138-1 0  9995
2 69514  53.1595 213.9708 0001076  99.5265 247.7046 15.47271685  5365
STARLINK-37232          
1 69515U 26133H   26189.45900933  .00037299  00000+0  67510-3 0  9991
2 69515  53.1595 216.7906 0001399  80.6678 279.4490 15.49325221  4119
STARLINK-37323          
1 69516U 26133J   26189.91668981 -.01546719  00000+0 -32502-1 0  9993
2 69516  53.1596 213.7511 0001162  80.4165  14.3537 15.47788733  5362
STARLINK-37357          
1 69517U 26133K   26189.35404741  .00030712  00000+0  55673-3 0  9998
2 69517  53.1589 217.5621 0000504 270.2321  89.8630 15.49378527  5359
STARLINK-37408          
1 69518U 26133L   26189.91668981  .00071623  00000+0  12848-2 0  9991
2 69518  53.1604 214.1350 0001505  34.0409 230.6399 15.49292266  5369
STARLINK-37570          
1 69519U 26133M   26189.00002315  .00066157  00000+0  11887-2 0  9993
2 69519  53.1601 219.0110 0000992  86.0657 217.7361 15.49281491  5213
STARLINK-37510          
1 69520U 26133N   26189.06996875  .00040441  00000+0  73076-3 0  9991
2 69520  53.1599 218.6262 0000867 101.4638 258.6469 15.49334972  5324
STARLINK-37586          
1 69521U 26133P   26189.91668981 -.02463372  00000+0 -54695-1 0  9990
2 69521  53.1595 213.6315 0001445  73.1533  78.1952 15.46679670  5367
STARLINK-37379          
1 69522U 26133Q   26189.91668981  .00065375  00000+0  11752-2 0  9996
2 69522  53.1602 214.2673 0001643  84.3580 113.0939 15.49271272  5416
STARLINK-37429          
1 69523U 26133R   26189.33817793  .00052945  00000+0  94938-3 0  9997
2 69523  53.1600 217.4542 0001624  94.7805 265.3389 15.49434063  5362
STARLINK-37352          
1 69524U 26133S   26189.91668981  .00065933  00000+0  11851-2 0  9998
2 69524  53.1602 214.2500 0001218  83.3902 121.7937 15.49272002  5418
STARLINK-37490          
1 69525U 26133T   26189.91668981  .00084419  00000+0  15091-2 0  9999
2 69525  53.1596 213.7838 0001023  33.3575  40.9929 15.49317689  5418
STARLINK-37438          
1 69526U 26133U   26189.95848523  .00022330  00000+0  40804-3 0  9991
2 69526  53.1597 214.2083 0001007  53.8659 306.2444 15.49334753  5466
STARLINK-37484          
1 69527U 26133V   26189.91668981 -.01400138  00000+0 -27560-1 0  9997
2 69527  53.1597 213.6910 0001593  99.9865  20.3099 15.49829033  5414
STARLINK-37523          
1 69528U 26133W   26189.91668981  .00066976  00000+0  12036-2 0  9996
2 69528  53.1603 214.2164 0001264  88.6076 131.9866 15.49271542  5412
STARLINK-37369          
1 69529U 26133X   26189.91668981  .00068124  00000+0  12238-2 0  9998
2 69529  53.1603 214.1748 0000903 104.0703 136.1986 15.49272277  5415
STARLINK-37670          
1 69530U 26133Y   26189.37257132  .00030231  00000+0  54871-3 0  9990
2 69530  53.1602 216.9443 0000769 318.3905  41.7046 15.49350315  5375
STARLINK-37897          
1 69531U 26133Z   26189.91668981  .00068500  00000+0  12288-2 0  9994
2 69531  53.1598 213.6682 0001020  24.9065 104.0888 15.49311325  5361
STARLINK-37933          
1 69532U 26133AA  26189.91668981 -.02654329  00000+0 -75749-1 0  9999
2 69532  53.1608 214.1171 0000972  62.3736 203.9410 15.39610455  5364
STARLINK-37890          
1 69533U 26133AB  26189.91668981  .00060538  00000+0  17911-2 0  9997
2 69533  53.1611 214.0072 0001320 100.4523 218.5485 15.34353257  5367
STARLINK-37407          
1 69534U 26133AC  26189.91668981 -.03724611  00000+0 -11796+0 0  9994
2 69534  53.1594 213.8423 0001214 168.2089 231.1204 15.36505945  5417
