OBJECT_NAME,OBJECT_ID,EPOCH,MEAN_MOTION,ECCENTRICITY,INCLINATION,RA_OF_ASC_NODE,ARG_OF_PERICENTER,MEAN_ANOMALY,EPHEMERIS_TYPE,CLASSIFICATION_TYPE,NORAD_CAT_ID,ELEMENT_SET_NO,REV_AT_EPOCH,BSTAR,MEAN_MOTION_DOT,MEAN_MOTION_DDOT
HORN-L,2026-132D,2026-07-08T19:27:16.151040,15.10520653,.00238519,97.6831,253.4199,230.4947,129.4174,0,U,69505,999,403,.14583196E-3,.2351E-4,0
VERTECS,2026-132E,2026-07-08T16:22:42.360672,15.00976969,.00149824,97.6833,253.1447,228.4536,131.5404,0,U,69506,999,399,.10542043E-3,.1287E-4,0
HORN-R,2026-132F,2026-07-08T02:45:26.764704,15.05258350,.00184676,97.6888,252.6451,229.6695,130.2919,0,U,69507,999,391,.89758291E-4,.1223E-4,0
STARLINK-37536,2026-133A,2026-07-08T08:29:01.403808,15.49363079,.00006769,53.1600,217.5626,68.1109,291.9972,0,U,69508,999,409,.57055693E-3,.31472E-3,0
STARLINK-37341,2026-133B,2026-07-08T11:37:27.658560,15.49344837,.00005885,53.1605,216.9611,89.0435,271.0642,0,U,69509,999,412,.73800327E-3,.40863E-3,0
STARLINK-36536,2026-133C,2026-07-08T22:00:01.999584,15.49192793,.00004677,53.1601,214.1449,56.3997,205.8454,0,U,69510,999,541,-.33766347E-1,-.1673402E-1,0
STARLINK-37420,2026-133D,2026-07-08T22:00:01.999584,15.49996645,.0000734,53.1593,213.8845,112.0977,278.5622,0,U,69511,999,536,-.48493366E-1,-.2455749E-1,0
STARLINK-37511,2026-133E,2026-07-08T22:00:01.999584,15.48476268,.00009717,53.1588,213.9178,86.5023,287.2219,0,U,69512,999,536,-.16570123E-1,-.8196E-2,0
STARLINK-37552,2026-133F,2026-07-08T08:30:51.772032,15.49349249,.00043702,53.1597,217.5694,85.8702,274.2806,0,U,69513,999,536,.5478097E-3,.30187E-3,0
STARLINK-37607,2026-133G,2026-07-08T22:00:01.999584,15.47271685,.00010764,53.1595,213.9708,99.5265,247.7046,0,U,69514,999,536,-.54138477E-1,-.2486062E-1,0
STARLINK-37232,2026-133H,2026-07-08T11:00:58.406112,15.49325221,.00013994,53.1595,216.7906,80.6678,279.4490,0,U,69515,999,411,.67510461E-3,.37299E-3,0
STARLINK-37323,2026-133J,2026-07-08T22:00:01.999584,15.47788733,.00011621,53.1596,213.7511,80.4165,14.3537,0,U,69516,999,536,-.32502253E-1,-.1546719E-1,0
STARLINK-37357,2026-133K,2026-07-08T08:29:49.696224,15.49378527,.00005047,53.1589,217.5621,270.2321,89.8630,0,U,69517,999,535,.55673135E-3,.30712E-3,0
STARLINK-37408,2026-133L,2026-07-08T22:00:01.999584,15.49292266,.0001505,53.1604,214.1350,34.0409,230.6399,0,U,69518,999,536,.12847947E-2,.71623E-3,0
STARLINK-37570,2026-133M,2026-07-08T00:00:02.000160,15.49281491,.00009923,53.1601,219.0110,86.0657,217.7361,0,U,69519,999,521,.11886559E-2,.66157E-3,0
STARLINK-37510,2026-133N,2026-07-08T01:40:45.300000,15.49334972,.00008679,53.1599,218.6262,101.4638,258.6469,0,U,69520,999,532,.73075761E-3,.40441E-3,0
STARLINK-37586,2026-133P,2026-07-08T22:00:01.999584,15.46679670,.00014451,53.1595,213.6315,73.1533,78.1952,0,U,69521,999,536,-.54695337E-1,-.2463372E-1,0
STARLINK-37379,2026-133Q,2026-07-08T22:00:01.999584,15.49271272,.00016434,53.1602,214.2673,84.3580,113.0939,0,U,69522,999,541,.11752271E-2,.65375E-3,0
STARLINK-37429,2026-133R,2026-07-08T08:06:58.573152,15.49434063,.0001624,53.1600,217.4542,94.7805,265.3389,0,U,69523,999,536,.94937897E-3,.52945E-3,0
STARLINK-37352,2026-133S,2026-07-08T22:00:01.999584,15.49272002,.00012182,53.1602,214.2500,83.3902,121.7937,0,U,69524,999,541,.11850759E-2,.65933E-3,0
STARLINK-37490,2026-133T,2026-07-08T22:00:01.999584,15.49317689,.00010234,53.1596,213.7838,33.3575,40.9929,0,U,69525,999,541,.15090955E-2,.84419E-3,0
STARLINK-37438,2026-133U,2026-07-08T23:00:13.123872,15.49334753,.00010072,53.1597,214.2083,53.8659,306.2444,0,U,69526,999,546,.40803858E-3,.2233E-3,0
STARLINK-37484,2026-133V,2026-07-08T22:00:01.999584,15.49829033,.00015937,53.1597,213.6910,99.9865,20.3099,0,U,69527,999,541,-.27560488E-1,-.1400138E-1,0
STARLINK-37523,2026-133W,2026-07-08T22:00:01.999584,15.49271542,.00012642,53.1603,214.2164,88.6076,131.9866,0,U,69528,999,541,.1203566E-2,.66976E-3,0
STARLINK-37369,2026-133X,2026-07-08T22:00:01.999584,15.49272277,.00009037,53.1603,214.1748,104.0703,136.1986,0,U,69529,999,541,.1223838E-2,.68124E-3,0
STARLINK-37670,2026-133Y,2026-07-08T08:56:30.162048,15.49350315,.00007696,53.1602,216.9443,318.3905,41.7046,0,U,69530,999,537,.54871081E-3,.30231E-3,0
STARLINK-37897,2026-133Z,2026-07-08T22:00:01.999584,15.49311325,.00010209,53.1598,213.6682,24.9065,104.0888,0,U,69531,999,536,.12288072E-2,.685E-3,0
STARLINK-37933,2026-133AA,2026-07-08T22:00:01.999584,15.39610455,.00009725,53.1608,214.1171,62.3736,203.9410,0,U,69532,999,536,-.75748787E-1,-.2654329E-1,0
STARLINK-37890,2026-133AB,2026-07-08T22:00:01.999584,15.34353257,.00013202,53.1611,214.0072,100.4523,218.5485,0,U,69533,999,536,.17910896E-2,.60538E-3,0
STARLINK-37407,2026-133AC,2026-07-08T22:00:01.999584,15.36505945,.00012143,53.1594,213.8423,168.2089,231.1204,0,U,69534,999,541,-.1179559E+0,-.3724611E-1,0
